CCSDS_OMM_VERS = 2.0
CREATION_DATE  = 
ORIGINATOR     = 

OBJECT_NAME    = STARLINK-35827
OBJECT_ID      = 2025-254T
CENTER_NAME    = EARTH
REF_FRAME      = TEME
TIME_SYSTEM    = UTC
MEAN_ELEMENT_THEORY = SGP/SGP4

EPOCH          = 2025-11-21T04:00:01.998720
MEAN_MOTION    = 15.74240445
ECCENTRICITY   = .0001347
INCLINATION    = 53.1592
RA_OF_ASC_NODE = 21.9612
ARG_OF_PERICENTER = 100.1087
MEAN_ANOMALY   = 298.6067

EPHEMERIS_TYPE = 0
CLASSIFICATION_TYPE = U
NORAD_CAT_ID   = 66365
ELEMENT_SET_NO = 999
REV_AT_EPOCH   = 342
BSTAR          = -.54119E-3
MEAN_MOTION_DOT = -.79323E-3
MEAN_MOTION_DDOT = 0

CCSDS_OMM_VERS = 2.0
CREATION_DATE  = 
ORIGINATOR     = 

OBJECT_NAME    = STARLINK-35845
OBJECT_ID      = 2025-254U
CENTER_NAME    = EARTH
REF_FRAME      = TEME
TIME_SYSTEM    = UTC
MEAN_ELEMENT_THEORY = SGP/SGP4

EPOCH          = 2025-11-21T04:00:01.998720
MEAN_MOTION    = 15.74228755
ECCENTRICITY   = .0001212
INCLINATION    = 53.1591
RA_OF_ASC_NODE = 21.9646
ARG_OF_PERICENTER = 96.4566
MEAN_ANOMALY   = 300.3935

EPHEMERIS_TYPE = 0
CLASSIFICATION_TYPE = U
NORAD_CAT_ID   = 66366
ELEMENT_SET_NO = 999
REV_AT_EPOCH   = 345
BSTAR          = -.71516E-3
MEAN_MOTION_DOT = -.10426E-2
MEAN_MOTION_DDOT = 0

CCSDS_OMM_VERS = 2.0
CREATION_DATE  = 
ORIGINATOR     = 

OBJECT_NAME    = STARLINK-35846
OBJECT_ID      = 2025-254V
CENTER_NAME    = EARTH
REF_FRAME      = TEME
TIME_SYSTEM    = UTC
MEAN_ELEMENT_THEORY = SGP/SGP4

EPOCH          = 2025-11-21T04:00:01.998720
MEAN_MOTION    = 15.74262242
ECCENTRICITY   = .0001579
INCLINATION    = 53.1591
RA_OF_ASC_NODE = 21.9566
ARG_OF_PERICENTER = 88.6092
MEAN_ANOMALY   = 312.0454

EPHEMERIS_TYPE = 0
CLASSIFICATION_TYPE = U
NORAD_CAT_ID   = 66367
ELEMENT_SET_NO = 999
REV_AT_EPOCH   = 340
BSTAR          = -.87476E-3
MEAN_MOTION_DOT = -.127235E-2
MEAN_MOTION_DDOT = 0

CCSDS_OMM_VERS = 2.0
CREATION_DATE  = 
ORIGINATOR     = 

OBJECT_NAME    = STARLINK-34861
OBJECT_ID      = 2025-254W
CENTER_NAME    = EARTH
REF_FRAME      = TEME
TIME_SYSTEM    = UTC
MEAN_ELEMENT_THEORY = SGP/SGP4

EPOCH          = 2025-11-21T04:00:01.998720
MEAN_MOTION    = 15.74187319
ECCENTRICITY   = .0000851
INCLINATION    = 53.1590
RA_OF_ASC_NODE = 21.9477
ARG_OF_PERICENTER = 116.0971
MEAN_ANOMALY   = 288.4201

EPHEMERIS_TYPE = 0
CLASSIFICATION_TYPE = U
NORAD_CAT_ID   = 66368
ELEMENT_SET_NO = 999
REV_AT_EPOCH   = 350
BSTAR          = -.96376E-4
MEAN_MOTION_DOT = -.14717E-3
MEAN_MOTION_DDOT = 0

CCSDS_OMM_VERS = 2.0
CREATION_DATE  = 
ORIGINATOR     = 

OBJECT_NAME    = STARLINK-35795
OBJECT_ID      = 2025-254X
CENTER_NAME    = EARTH
REF_FRAME      = TEME
TIME_SYSTEM    = UTC
MEAN_ELEMENT_THEORY = SGP/SGP4

EPOCH          = 2025-11-21T04:00:01.998720
MEAN_MOTION    = 15.74237752
ECCENTRICITY   = .0000749
INCLINATION    = 53.1590
RA_OF_ASC_NODE = 21.9516
ARG_OF_PERICENTER = 75.1314
MEAN_ANOMALY   = 327.4460

EPHEMERIS_TYPE = 0
CLASSIFICATION_TYPE = U
NORAD_CAT_ID   = 66369
ELEMENT_SET_NO = 999
REV_AT_EPOCH   = 340
BSTAR          = -.55212E-3
MEAN_MOTION_DOT = -.80883E-3
MEAN_MOTION_DDOT = 0

CCSDS_OMM_VERS = 2.0
CREATION_DATE  = 
ORIGINATOR     = 

OBJECT_NAME    = STARLINK-35824
OBJECT_ID      = 2025-254Y
CENTER_NAME    = EARTH
REF_FRAME      = TEME
TIME_SYSTEM    = UTC
MEAN_ELEMENT_THEORY = SGP/SGP4

EPOCH          = 2025-11-21T04:00:01.998720
MEAN_MOTION    = 15.74188423
ECCENTRICITY   = .0001482
INCLINATION    = 53.1592
RA_OF_ASC_NODE = 21.9440
ARG_OF_PERICENTER = 94.0501
MEAN_ANOMALY   = 312.3862

EPHEMERIS_TYPE = 0
CLASSIFICATION_TYPE = U
NORAD_CAT_ID   = 66370
ELEMENT_SET_NO = 999
REV_AT_EPOCH   = 342
BSTAR          = -.17616E-3
MEAN_MOTION_DOT = -.26348E-3
MEAN_MOTION_DDOT = 0

CCSDS_OMM_VERS = 2.0
CREATION_DATE  = 
ORIGINATOR     = 

OBJECT_NAME    = STARLINK-35804
OBJECT_ID      = 2025-254Z
CENTER_NAME    = EARTH
REF_FRAME      = TEME
TIME_SYSTEM    = UTC
MEAN_ELEMENT_THEORY = SGP/SGP4

EPOCH          = 2025-11-21T04:00:01.998720
MEAN_MOTION    = 15.74234881
ECCENTRICITY   = .0000966
INCLINATION    = 53.1591
RA_OF_ASC_NODE = 21.9359
ARG_OF_PERICENTER = 91.5803
MEAN_ANOMALY   = 318.6834

EPHEMERIS_TYPE = 0
CLASSIFICATION_TYPE = U
NORAD_CAT_ID   = 66371
ELEMENT_SET_NO = 999
REV_AT_EPOCH   = 345
BSTAR          = -.72158E-3
MEAN_MOTION_DOT = -.105203E-2
MEAN_MOTION_DDOT = 0

CCSDS_OMM_VERS = 2.0
CREATION_DATE  = 
ORIGINATOR     = 

OBJECT_NAME    = STARLINK-35821
OBJECT_ID      = 2025-254AA
CENTER_NAME    = EARTH
REF_FRAME      = TEME
TIME_SYSTEM    = UTC
MEAN_ELEMENT_THEORY = SGP/SGP4

EPOCH          = 2025-11-21T04:00:01.998720
MEAN_MOTION    = 15.74207597
ECCENTRICITY   = .0001326
INCLINATION    = 53.1592
RA_OF_ASC_NODE = 21.9406
ARG_OF_PERICENTER = 99.0887
MEAN_ANOMALY   = 309.2659

EPHEMERIS_TYPE = 0
CLASSIFICATION_TYPE = U
NORAD_CAT_ID   = 66372
ELEMENT_SET_NO = 999
REV_AT_EPOCH   = 345
BSTAR          = -.35641E-3
MEAN_MOTION_DOT = -.52545E-3
MEAN_MOTION_DDOT = 0

CCSDS_OMM_VERS = 2.0
CREATION_DATE  = 
ORIGINATOR     = 

OBJECT_NAME    = STARLINK-35809
OBJECT_ID      = 2025-254AB
CENTER_NAME    = EARTH
REF_FRAME      = TEME
TIME_SYSTEM    = UTC
MEAN_ELEMENT_THEORY = SGP/SGP4

EPOCH          = 2025-11-21T04:00:01.998720
MEAN_MOTION    = 15.74075733
ECCENTRICITY   = .0001944
INCLINATION    = 53.1592
RA_OF_ASC_NODE = 21.9315
ARG_OF_PERICENTER = 99.2764
MEAN_ANOMALY   = 312.9251

EPHEMERIS_TYPE = 0
CLASSIFICATION_TYPE = U
NORAD_CAT_ID   = 66373
ELEMENT_SET_NO = 999
REV_AT_EPOCH   = 345
BSTAR          = .13851E-2
MEAN_MOTION_DOT = .206253E-2
MEAN_MOTION_DDOT = 0

CCSDS_OMM_VERS = 2.0
CREATION_DATE  = 
ORIGINATOR     = 

OBJECT_NAME    = STARLINK-35831
OBJECT_ID      = 2025-254AC
CENTER_NAME    = EARTH
REF_FRAME      = TEME
TIME_SYSTEM    = UTC
MEAN_ELEMENT_THEORY = SGP/SGP4

EPOCH          = 2025-11-21T04:00:01.998720
MEAN_MOTION    = 15.74225384
ECCENTRICITY   = .0001323
INCLINATION    = 53.1592
RA_OF_ASC_NODE = 21.9276
ARG_OF_PERICENTER = 96.5147
MEAN_ANOMALY   = 317.5873

EPHEMERIS_TYPE = 0
CLASSIFICATION_TYPE = U
NORAD_CAT_ID   = 66374
ELEMENT_SET_NO = 999
REV_AT_EPOCH   = 345
BSTAR          = .57819E-3
MEAN_MOTION_DOT = .85041E-3
MEAN_MOTION_DDOT = 0

CCSDS_OMM_VERS = 2.0
CREATION_DATE  = 
ORIGINATOR     = 

OBJECT_NAME    = STARLINK-35826
OBJECT_ID      = 2025-254AD
CENTER_NAME    = EARTH
REF_FRAME      = TEME
TIME_SYSTEM    = UTC
MEAN_ELEMENT_THEORY = SGP/SGP4

EPOCH          = 2025-11-21T04:00:01.998720
MEAN_MOTION    = 15.74210444
ECCENTRICITY   = .0001117
INCLINATION    = 53.1593
RA_OF_ASC_NODE = 21.9239
ARG_OF_PERICENTER = 97.7386
MEAN_ANOMALY   = 318.2700

EPHEMERIS_TYPE = 0
CLASSIFICATION_TYPE = U
NORAD_CAT_ID   = 66375
ELEMENT_SET_NO = 999
REV_AT_EPOCH   = 345
BSTAR          = -.40444E-3
MEAN_MOTION_DOT = -.59498E-3
MEAN_MOTION_DDOT = 0

CCSDS_OMM_VERS = 2.0
CREATION_DATE  = 
ORIGINATOR     = 

OBJECT_NAME    = SHIYAN-32 01
OBJECT_ID      = 2025-255A
CENTER_NAME    = EARTH
REF_FRAME      = TEME
TIME_SYSTEM    = UTC
MEAN_ELEMENT_THEORY = SGP/SGP4

EPOCH          = 2025-11-21T02:36:43.089120
MEAN_MOTION    = 15.41704688
ECCENTRICITY   = .0013102
INCLINATION    = 52.9970
RA_OF_ASC_NODE = 280.8103
ARG_OF_PERICENTER = 334.0018
MEAN_ANOMALY   = 26.0326

EPHEMERIS_TYPE = 0
CLASSIFICATION_TYPE = U
NORAD_CAT_ID   = 66376
ELEMENT_SET_NO = 999
REV_AT_EPOCH   = 201
BSTAR          = .47142E-3
MEAN_MOTION_DOT = .19902E-3
MEAN_MOTION_DDOT = 0

