STARLINK-35827          
1 66365U 25254T   25325.16668980 -.00079323  00000+0 -54119-3 0  9993
2 66365  53.1592  21.9612 0001347 100.1087 298.6067 15.74240445  3429
STARLINK-35845          
1 66366U 25254U   25325.16668980 -.00104260  00000+0 -71516-3 0  9993
2 66366  53.1591  21.9646 0001212  96.4566 300.3935 15.74228755  3454
STARLINK-35846          
1 66367U 25254V   25325.16668980 -.00127235  00000+0 -87476-3 0  9993
2 66367  53.1591  21.9566 0001579  88.6092 312.0454 15.74262242  3409
STARLINK-34861          
1 66368U 25254W   25325.16668980 -.00014717  00000+0 -96376-4 0  9994
2 66368  53.1590  21.9477 0000851 116.0971 288.4201 15.74187319  3502
STARLINK-35795          
1 66369U 25254X   25325.16668980 -.00080883  00000+0 -55212-3 0  9995
2 66369  53.1590  21.9516 0000749  75.1314 327.4460 15.74237752  3406
STARLINK-35824          
1 66370U 25254Y   25325.16668980 -.00026348  00000+0 -17616-3 0  9999
2 66370  53.1592  21.9440 0001482  94.0501 312.3862 15.74188423  3420
STARLINK-35804          
1 66371U 25254Z   25325.16668980 -.00105203  00000+0 -72158-3 0  9990
2 66371  53.1591  21.9359 0000966  91.5803 318.6834 15.74234881  3453
STARLINK-35821          
1 66372U 25254AA  25325.16668980 -.00052545  00000+0 -35641-3 0  9997
2 66372  53.1592  21.9406 0001326  99.0887 309.2659 15.74207597  3459
STARLINK-35809          
1 66373U 25254AB  25325.16668980  .00206253  00000+0  13851-2 0  9991
2 66373  53.1592  21.9315 0001944  99.2764 312.9251 15.74075733  3455
STARLINK-35831          
1 66374U 25254AC  25325.16668980  .00085041  00000+0  57819-3 0  9995
2 66374  53.1592  21.9276 0001323  96.5147 317.5873 15.74225384  3458
STARLINK-35826          
1 66375U 25254AD  25325.16668980 -.00059498  00000+0 -40444-3 0  9991
2 66375  53.1593  21.9239 0001117  97.7386 318.2700 15.74210444  3456
SHIYAN-32 01            
1 66376U 25255A   25325.10883205  .00019902  00000+0  47142-3 0  9992
2 66376  52.9970 280.8103 0013102 334.0018  26.0326 15.41704688  2016
